{
    "links": {
        "self": "http://www.neowsapp.com/rest/v1/neo/54054655?api_key=iIulBulltgU6a56xZRHN4H3l9WmuAYTsLGpBGhQ2"
    },
    "id": "54054655",
    "neo_reference_id": "54054655",
    "name": "(2020 SE5)",
    "designation": "2020 SE5",
    "nasa_jpl_url": "http://ssd.jpl.nasa.gov/sbdb.cgi?sstr=54054655",
    "absolute_magnitude_h": 24.075,
    "estimated_diameter": {
        "kilometers": {
            "estimated_diameter_min": 0.0406963047,
            "estimated_diameter_max": 0.0909997038
        },
        "meters": {
            "estimated_diameter_min": 40.6963047315,
            "estimated_diameter_max": 90.9997038127
        },
        "miles": {
            "estimated_diameter_min": 0.0252875036,
            "estimated_diameter_max": 0.056544577
        },
        "feet": {
            "estimated_diameter_min": 133.5180644153,
            "estimated_diameter_max": 298.5554682569
        }
    },
    "is_potentially_hazardous_asteroid": false,
    "close_approach_data": [
        {
            "close_approach_date": "2020-09-21",
            "close_approach_date_full": "2020-Sep-21 01:49",
            "epoch_date_close_approach": 1600652940000,
            "relative_velocity": {
                "kilometers_per_second": "9.702090829",
                "kilometers_per_hour": "34927.5269842935",
                "miles_per_hour": "21702.606975324"
            },
            "miss_distance": {
                "astronomical": "0.1700180406",
                "lunar": "66.1370177934",
                "kilometers": "25434336.735333522",
                "miles": "15804163.9985137236"
            },
            "orbiting_body": "Earth"
        }
    ],
    "orbital_data": {
        "orbit_id": "3",
        "orbit_determination_date": "2020-10-12 07:28:38",
        "first_observation_date": "2020-09-24",
        "last_observation_date": "2020-10-12",
        "data_arc_in_days": 18,
        "observations_used": 26,
        "orbit_uncertainty": "8",
        "minimum_orbit_intersection": ".162151",
        "jupiter_tisserand_invariant": "4.444",
        "epoch_osculation": "2459118.5",
        "eccentricity": ".2809221649381901",
        "semi_major_axis": "1.504314145226895",
        "inclination": "17.3331490329617",
        "ascending_node_longitude": "13.01081356790518",
        "orbital_period": "673.9167266736292",
        "perihelion_distance": "1.081718958802613",
        "perihelion_argument": "303.9227033050882",
        "aphelion_distance": "1.926909331651178",
        "perihelion_time": "2459067.906996982711",
        "mean_anomaly": "27.02630809614054",
        "mean_motion": ".5341906288287517",
        "equinox": "J2000",
        "orbit_class": {
            "orbit_class_type": "AMO",
            "orbit_class_description": "Near-Earth asteroid orbits similar to that of 1221 Amor",
            "orbit_class_range": "1.017 AU < q (perihelion) < 1.3 AU"
        }
    },
    "is_sentry_object": false
}